{"type": "FeatureCollection", "features": [ {"type": "Feature", "properties": {"norad_id": 66648, "name": "COSMOS 2598 (RODNIK-S 23)", "group": "last-30-days", "lat": 36.446092416191256, "lon": -66.20264396004262, "alt_km": 1496.0645558228816, "timestamp": "2025-12-09T21:34:10.196870+00:00", "meta": {"OBJECT_NAME": "COSMOS 2598 (RODNIK-S 23)", "OBJECT_ID": "2025-273B", "EPOCH": "2025-12-09T15:34:33.720960", "MEAN_MOTION": 12.42861544, "ECCENTRICITY": 0.00072634, "INCLINATION": 82.5025, "RA_OF_ASC_NODE": 288.372, "ARG_OF_PERICENTER": 258.6843, "MEAN_ANOMALY": 101.3421, "EPHEMERIS_TYPE": 0, "CLASSIFICATION_TYPE": "U", "NORAD_CAT_ID": 66648, "ELEMENT_SET_NO": 999, "REV_AT_EPOCH": 175, "BSTAR": -8.9058965e-05, "MEAN_MOTION_DOT": -2e-08, "MEAN_MOTION_DDOT": 0}, "tle": {"line1": "1 66648U 25273B   25343.64900140 -.00000002  00000+0 -89059-4 0  9998", "line2": "2 66648  82.5025 288.3720 0007263 258.6843 101.3421 12.42861544  1750"}}, "geometry": {"type": "Point", "coordinates": [-66.20264396004262, 36.446092416191256]}}, {"type": "Feature", "properties": {"norad_id": 66649, "name": "COSMOS 2599 (RODNIK-S 24)", "group": "last-30-days", "lat": -1.4476878151840482, "lon": -71.96202870210367, "alt_km": 1498.4527740066678, "timestamp": "2025-12-09T21:34:10.196882+00:00", "meta": {"OBJECT_NAME": "COSMOS 2599 (RODNIK-S 24)", "OBJECT_ID": "2025-273C", "EPOCH": "2025-12-09T13:50:31.416000", "MEAN_MOTION": 12.41671791, "ECCENTRICITY": 0.00081698, "INCLINATION": 82.5025, "RA_OF_ASC_NODE": 288.4283, "ARG_OF_PERICENTER": 307.2434, "MEAN_ANOMALY": 52.7899, "EPHEMERIS_TYPE": 0, "CLASSIFICATION_TYPE": "U", "NORAD_CAT_ID": 66649, "ELEMENT_SET_NO": 999, "REV_AT_EPOCH": 174, "BSTAR": 0.0001193593, "MEAN_MOTION_DOT": 2.6e-07, "MEAN_MOTION_DDOT": 0}, "tle": {"line1": "1 66649U 25273C   25343.57675250  .00000026  00000+0  11936-3 0  9994", "line2": "2 66649  82.5025 288.4283 0008169 307.2434  52.7899 12.41671791  1748"}}, "geometry": {"type": "Point", "coordinates": [-71.96202870210367, -1.4476878151840482]}}, {"type": "Feature", "properties": {"norad_id": 66650, "name": "BEE-1000", "group": "last-30-days", "lat": 14.66412116675574, "lon": 93.17764043982274, "alt_km": 594.7253109734611, "timestamp": "2025-12-09T21:34:10.196894+00:00", "meta": {"OBJECT_NAME": "BEE-1000", "OBJECT_ID": "2025-274A", "EPOCH": "2025-12-09T06:20:27.921120", "MEAN_MOTION": 14.91642041, "ECCENTRICITY": 0.001044, "INCLINATION": 97.7386, "RA_OF_ASC_NODE": 270.5157, "ARG_OF_PERICENTER": 264.9451, "MEAN_ANOMALY": 95.0576, "EPHEMERIS_TYPE": 0, "CLASSIFICATION_TYPE": "U", "NORAD_CAT_ID": 66650, "ELEMENT_SET_NO": 999, "REV_AT_EPOCH": 188, "BSTAR": 0.00027961, "MEAN_MOTION_DOT": 2.756e-05, "MEAN_MOTION_DDOT": 0}, "tle": {"line1": "1 66650U 25274A   25343.26421205  .00002756  00000+0  27961-3 0  9999", "line2": "2 66650  97.7386 270.5157 0010440 264.9451  95.0576 14.91642041  1883"}}, "geometry": {"type": "Point", "coordinates": [93.17764043982274, 14.66412116675574]}}, {"type": "Feature", "properties": {"norad_id": 66651, "name": "2025-274B", "group": "last-30-days", "lat": 11.031605474756535, "lon": 92.65828845452344, "alt_km": 594.3518023773167, "timestamp": "2025-12-09T21:34:10.196907+00:00", "meta": {"OBJECT_NAME": "2025-274B", "OBJECT_ID": "2025-274B", "EPOCH": "2025-12-09T07:56:08.403648", "MEAN_MOTION": 14.91755081, "ECCENTRICITY": 0.00107464, "INCLINATION": 97.7381, "RA_OF_ASC_NODE": 270.5817, "ARG_OF_PERICENTER": 263.8603, "MEAN_ANOMALY": 96.1392, "EPHEMERIS_TYPE": 0, "CLASSIFICATION_TYPE": "U", "NORAD_CAT_ID": 66651, "ELEMENT_SET_NO": 999, "REV_AT_EPOCH": 189, "BSTAR": 0.00057036461, "MEAN_MOTION_DOT": 5.698e-05, "MEAN_MOTION_DDOT": 0}, "tle": {"line1": "1 66651U 25274B   25343.33065282  .00005698  00000+0  57036-3 0  9991", "line2": "2 66651  97.7381 270.5817 0010746 263.8603  96.1392 14.91755081  1896"}}, "geometry": {"type": "Point", "coordinates": [92.65828845452344, 11.031605474756535]}}, {"type": "Feature", "properties": {"norad_id": 66652, "name": "2025-274C", "group": "last-30-days", "lat": 4.461645966477218, "lon": 91.75100182256311, "alt_km": 594.9466371562621, "timestamp": "2025-12-09T21:34:10.196917+00:00", "meta": {"OBJECT_NAME": "2025-274C", "OBJECT_ID": "2025-274C", "EPOCH": "2025-12-09T12:44:10.520448", "MEAN_MOTION": 14.91874076, "ECCENTRICITY": 0.00104068, "INCLINATION": 97.7387, "RA_OF_ASC_NODE": 270.7817, "ARG_OF_PERICENTER": 269.9894, "MEAN_ANOMALY": 90.0132, "EPHEMERIS_TYPE": 0, "CLASSIFICATION_TYPE": "U", "NORAD_CAT_ID": 66652, "ELEMENT_SET_NO": 999, "REV_AT_EPOCH": 192, "BSTAR": 0.00037452279, "MEAN_MOTION_DOT": 3.732e-05, "MEAN_MOTION_DDOT": 0}, "tle": {"line1": "1 66652U 25274C   25343.53067732  .00003732  00000+0  37452-3 0  9993", "line2": "2 66652  97.7387 270.7817 0010406 269.9894  90.0132 14.91874076  1922"}}, "geometry": {"type": "Point", "coordinates": [91.75100182256311, 4.461645966477218]}}, {"type": "Feature", "properties": {"norad_id": 66653, "name": "2025-274D", "group": "last-30-days", "lat": 4.1547069529790015, "lon": 91.7087731444807, "alt_km": 594.4057393577441, "timestamp": "2025-12-09T21:34:10.196926+00:00", "meta": {"OBJECT_NAME": "2025-274D", "OBJECT_ID": "2025-274D", "EPOCH": "2025-12-09T12:44:05.312256", "MEAN_MOTION": 14.91878474, "ECCENTRICITY": 0.00112798, "INCLINATION": 97.7386, "RA_OF_ASC_NODE": 270.7814, "ARG_OF_PERICENTER": 265.8961, "MEAN_ANOMALY": 94.0969, "EPHEMERIS_TYPE": 0, "CLASSIFICATION_TYPE": "U", "NORAD_CAT_ID": 66653, "ELEMENT_SET_NO": 999, "REV_AT_EPOCH": 192, "BSTAR": 0.00038978067, "MEAN_MOTION_DOT": 3.888e-05, "MEAN_MOTION_DDOT": 0}, "tle": {"line1": "1 66653U 25274D   25343.53061704  .00003888  00000+0  38978-3 0  9993", "line2": "2 66653  97.7386 270.7814 0011279 265.8961  94.0969 14.91878474  1926"}}, "geometry": {"type": "Point", "coordinates": [91.7087731444807, 4.1547069529790015]}}, {"type": "Feature", "properties": {"norad_id": 66654, "name": "JACK E", "group": "last-30-days", "lat": -3.66481627889795, "lon": 90.64767395441193, "alt_km": 593.9845609621971, "timestamp": "2025-12-09T21:34:10.196936+00:00", "meta": {"OBJECT_NAME": "JACK E", "OBJECT_ID": "2025-274E", "EPOCH": "2025-12-09T09:28:53.341248", "MEAN_MOTION": 14.9205262, "ECCENTRICITY": 0.00118648, "INCLINATION": 97.7388, "RA_OF_ASC_NODE": 270.6521, "ARG_OF_PERICENTER": 268.0515, "MEAN_ANOMALY": 91.9345, "EPHEMERIS_TYPE": 0, "CLASSIFICATION_TYPE": "U", "NORAD_CAT_ID": 66654, "ELEMENT_SET_NO": 999, "REV_AT_EPOCH": 190, "BSTAR": 0.00043977089, "MEAN_MOTION_DOT": 4.414e-05, "MEAN_MOTION_DDOT": 0}, "tle": {"line1": "1 66654U 25274E   25343.39506182  .00004414  00000+0  43977-3 0  9993", "line2": "2 66654  97.7388 270.6521 0011864 268.0515  91.9345 14.92052620  1903"}}, "geometry": {"type": "Point", "coordinates": [90.64767395441193, -3.66481627889795]}}, {"type": "Feature", "properties": {"norad_id": 66655, "name": "2025-274F", "group": "last-30-days", "lat": -15.184784992554814, "lon": 89.03565686817954, "alt_km": 597.0006459840497, "timestamp": "2025-12-09T21:34:10.196946+00:00", "meta": {"OBJECT_NAME": "2025-274F", "OBJECT_ID": "2025-274F", "EPOCH": "2025-12-08T18:57:10.718496", "MEAN_MOTION": 14.92504145, "ECCENTRICITY": 0.00054909, "INCLINATION": 97.7329, "RA_OF_ASC_NODE": 270.0601, "ARG_OF_PERICENTER": 323.8556, "MEAN_ANOMALY": 36.2292, "EPHEMERIS_TYPE": 0, "CLASSIFICATION_TYPE": "U", "NORAD_CAT_ID": 66655, "ELEMENT_SET_NO": 999, "REV_AT_EPOCH": 181, "BSTAR": 0.001516128, "MEAN_MOTION_DOT": 0.00015539, "MEAN_MOTION_DDOT": 0}, "tle": {"line1": "1 66655U 25274F   25342.78970739  .00015539  00000+0  15161-2 0  9992", "line2": "2 66655  97.7329 270.0601 0005490 323.8556  36.2292 14.92504145  1812"}}, "geometry": {"type": "Point", "coordinates": [89.03565686817954, -15.184784992554814]}}, {"type": "Feature", "properties": {"norad_id": 66656, "name": "2025-274G", "group": "last-30-days", "lat": -12.253323209429201, "lon": 89.45772335499194, "alt_km": 593.2821256842544, "timestamp": "2025-12-09T21:34:10.196956+00:00", "meta": {"OBJECT_NAME": "2025-274G", "OBJECT_ID": "2025-274G", "EPOCH": "2025-12-09T14:16:19.710912", "MEAN_MOTION": 14.9224266, "ECCENTRICITY": 0.00124857, "INCLINATION": 97.7385, "RA_OF_ASC_NODE": 270.8514, "ARG_OF_PERICENTER": 269.0756, "MEAN_ANOMALY": 90.9033, "EPHEMERIS_TYPE": 0, "CLASSIFICATION_TYPE": "U", "NORAD_CAT_ID": 66656, "ELEMENT_SET_NO": 999, "REV_AT_EPOCH": 193, "BSTAR": 0.00046904644, "MEAN_MOTION_DOT": 4.735e-05, "MEAN_MOTION_DDOT": 0}, "tle": {"line1": "1 66656U 25274G   25343.59467258  .00004735  00000+0  46905-3 0  9997", "line2": "2 66656  97.7385 270.8514 0012485 269.0756  90.9033 14.92242660  1935"}}, "geometry": {"type": "Point", "coordinates": [89.45772335499194, -12.253323209429201]}}, {"type": "Feature", "properties": {"norad_id": 66657, "name": "SPIRONE", "group": "last-30-days", "lat": -20.685132575491487, "lon": 88.20988242909269, "alt_km": 595.2093326684962, "timestamp": "2025-12-09T21:34:10.196967+00:00", "meta": {"OBJECT_NAME": "SPIRONE", "OBJECT_ID": "2025-274H", "EPOCH": "2025-12-08T20:32:05.028864", "MEAN_MOTION": 14.92414576, "ECCENTRICITY": 0.0010976, "INCLINATION": 97.7386, "RA_OF_ASC_NODE": 270.128, "ARG_OF_PERICENTER": 290.7866, "MEAN_ANOMALY": 69.2177, "EPHEMERIS_TYPE": 0, "CLASSIFICATION_TYPE": "U", "NORAD_CAT_ID": 66657, "ELEMENT_SET_NO": 999, "REV_AT_EPOCH": 182, "BSTAR": 0.00036917, "MEAN_MOTION_DOT": 3.729e-05, "MEAN_MOTION_DDOT": 0}, "tle": {"line1": "1 66657U 25274H   25342.85561376  .00003729  00000+0  36917-3 0  9996", "line2": "2 66657  97.7386 270.1280 0010976 290.7866  69.2177 14.92414576  1829"}}, "geometry": {"type": "Point", "coordinates": [88.20988242909269, -20.685132575491487]}}]}